AMC-14                  
1 32708U 08011A   17345.88587667  .00000082  00000-0  00000-0 0  9995
2 32708  19.4343  60.1997 0033939 352.1951   5.2898  1.00271403 36976
